{"fetched_at":"2026-03-29T16:36:15Z","count":15609,"tles":[{"name":"STARLINK-35897","line1":"1 66501U 25263S   26087.75102128  .00028611  00000+0  10445-2 0  9998","line2":"2 66501  43.0044 243.0925 0001552 285.6410  74.4270 15.27601715 21810","category":"Starlink"}]}